NORAD_CAT_ID,OBJECT_NAME,OBJECT_TYPE,EPOCH,MEAN_MOTION,ECCENTRICITY,INCLINATION,RA_OF_ASC_NODE,ARG_OF_PERICENTER,MEAN_ANOMALY,BSTAR,MEAN_MOTION_DOT,MEAN_MOTION_DDOT,TLE_LINE0,TLE_LINE1,TLE_LINE2,SEMIMAJOR_AXIS,PERIOD,APOGEE,PERIGEE,DECAYED
51987.0,STARLINK-3644,PAYLOAD,2022-11-22 14:18:35,15.08846209,0.0002153,53.2186,40.0289,36.6967,323.4172,4.3645e-05,4.07e-06,0.0,0 STARLINK-3644,1 51987U 22025AH  22326.59624893  .00000407  00000-0  43645-4 0  9999,2 51987  53.2186  40.0289 0002153  36.6967 323.4172 15.08846209 40524,6917.861,95.437,541.216,538.237,0.0
51987.0,STARLINK-3644,PAYLOAD,2022-11-23 10:58:38,15.08826049,0.0002207,53.2185,36.1633,37.1531,322.9613,1.1703e-05,-1.02e-06,0.0,0 STARLINK-3644,1 51987U 22025AH  22327.45738575 -.00000102  00000-0  11703-4 0  9991,2 51987  53.2185  36.1633 0002207  37.1531 322.9613 15.08826049 40653,6917.9230000000025,95.438,541.315,538.261,0.0
51987.0,STARLINK-3644,PAYLOAD,2022-11-23 14:09:24,15.08826082,0.0002138,53.2186,35.5684,34.8484,325.2648,-1.2059e-05,-4.8e-06,0.0,0 STARLINK-3644,1 51987U 22025AH  22327.58986721 -.00000480  00000-0 -12059-4 0  9998,2 51987  53.2186  35.5684 0002138  34.8484 325.2648 15.08826082 39588,6917.9230000000025,95.438,541.2669999999998,538.309,0.0
51987.0,STARLINK-3644,PAYLOAD,2022-11-24 10:49:24,15.08843808,0.0002311,53.2183,31.7031,32.925,327.1885,2.5299e-05,1.14e-06,0.0,0 STARLINK-3644,1 51987U 22025AH  22328.45097768  .00000114  00000-0  25299-4 0  9991,2 51987  53.2183  31.7031 0002311  32.9250 327.1885 15.08843808 40808,6917.869000000002,95.437,541.332,538.135,0.0
51987.0,STARLINK-3644,PAYLOAD,2022-11-24 14:00:10,15.0884674,0.0002285,53.2184,31.1084,33.7821,326.3317,2.799e-05,1.57e-06,0.0,0 STARLINK-3644,1 51987U 22025AH  22328.58345549  .00000157  00000-0  27990-4 0  9995,2 51987  53.2184  31.1084 0002285  33.7821 326.3317 15.08846740 39733,6917.86,95.437,541.306,538.144,0.0
51987.0,STARLINK-3644,PAYLOAD,2022-11-25 10:40:11,15.088374800000002,0.0002322,53.2184,27.2428,31.5438,328.5693,0.0001198,1.619e-05,0.0,0 STARLINK-3644,1 51987U 22025AH  22329.44457678  .00001619  00000-0  11980-3 0  9993,2 51987  53.2184  27.2428 0002322  31.5438 328.5693 15.08837480 39869,6917.888000000001,95.438,541.359,538.1469999999998,0.0
51987.0,STARLINK-3644,PAYLOAD,2022-11-25 15:26:20,15.08840795,0.0002334,53.2184,26.3507,31.9323,328.1811,0.00014125,1.96e-05,0.0,0 STARLINK-3644,1 51987U 22025AH  22329.64329460  .00001960  00000-0  14125-3 0  9995,2 51987  53.2184  26.3507 0002334  31.9323 328.1811 15.08840795 40983,6917.878000000002,95.438,541.3580000000002,538.128,0.0
51987.0,STARLINK-3644,PAYLOAD,2022-11-26 10:30:57,15.08848029,0.0002363,53.2185,22.7822,31.8665,328.2469,3.8211e-05,3.2e-06,0.0,0 STARLINK-3644,1 51987U 22025AH  22330.43817042  .00000320  00000-0  38211-4 0  9994,2 51987  53.2185  22.7822 0002363  31.8665 328.2469 15.08848029 40016,6917.856,95.437,541.356,538.086,0.0
51987.0,STARLINK-3644,PAYLOAD,2022-11-26 20:03:16,15.08854056,0.0002404,53.2187,20.9985,31.9168,328.19699999999995,5.7833e-05,6.32e-06,0.0,0 STARLINK-3644,1 51987U 22025AH  22330.83560301  .00000632  00000-0  57833-4 0  9998,2 51987  53.2187  20.9985 0002404  31.9168 328.1970 15.08854056 40072,6917.837,95.437,541.365,538.039,0.0
51987.0,STARLINK-3644,PAYLOAD,2022-11-26 23:14:02,15.08851478,0.0002395,53.2182,20.4042,30.5734,329.5398,6.4616e-05,7.400000000000001e-06,0.0,0 STARLINK-3644,1 51987U 22025AH  22330.96808326  .00000740  00000-0  64616-4 0  9991,2 51987  53.2182  20.4042 0002395  30.5734 329.5398 15.08851478 41186,6917.845,95.437,541.367,538.053,0.0
51987.0,STARLINK-3644,PAYLOAD,2022-11-27 08:46:22,15.08834205,0.0002282,53.2197,18.6205,32.2775,327.8356,-7.9888e-05,-1.559e-05,0.0,0 STARLINK-3644,1 51987U 22025AH  22331.36553765 -.00001559  00000-0 -79888-4 0  9998,2 51987  53.2197  18.6205 0002282  32.2775 327.8356 15.08834205 40151,6917.898,95.438,541.342,538.184,0.0
51987.0,STARLINK-3644,PAYLOAD,2022-11-27 11:57:08,15.08833694,0.000221,53.2199,18.0265,34.1354,325.978,-6.5375e-05,-1.328e-05,0.0,0 STARLINK-3644,1 51987U 22025AH  22331.49801777 -.00001328  00000-0 -65375-4 0  9991,2 51987  53.2199  18.0265 0002210  34.1354 325.9780 15.08833694 41262,6917.9,95.438,541.294,538.236,0.0
51987.0,STARLINK-3644,PAYLOAD,2022-11-28 11:47:55,15.08836941,0.000234,53.2186,13.5641,30.1002,330.0124,-6.9665e-05,-1.397e-05,0.0,0 STARLINK-3644,1 51987U 22025AH  22332.49161768 -.00001397  00000-0 -69665-4 0  9993,2 51987  53.2186  13.5641 0002340  30.1002 330.0124 15.08836941 40329,6917.89,95.438,541.374,538.136,0.0
51987.0,STARLINK-3644,PAYLOAD,2022-11-29 05:17:09,15.08846547,0.0002543,53.218,10.2924,31.4293,328.685,-1.8043e-05,-5.76e-06,0.0,0 STARLINK-3644,1 51987U 22025AH  22333.22025018 -.00000576  00000-0 -18043-4 0  9994,2 51987  53.2180  10.2924 0002543  31.4293 328.6850 15.08846547 41527,6917.86,95.437,541.485,537.966,0.0
51987.0,STARLINK-3644,PAYLOAD,2022-11-29 11:38:42,15.08838421,0.0002458,53.2185,9.1034,29.192,330.9209,0.00011472,1.538e-05,0.0,0 STARLINK-3644,1 51987U 22025AH  22333.48521127  .00001538  00000-0  11472-3 0  9999,2 51987  53.2185   9.1034 0002458  29.1920 330.9209 15.08838421 40476,6917.885,95.438,541.451,538.05,0.0
51987.0,STARLINK-3644,PAYLOAD,2022-11-30 05:07:57,15.08828701,0.0002416,53.2185,5.8328,31.8804,328.2334,1.8873e-05,1.2e-07,0.0,0 STARLINK-3644,1 51987U 22025AH  22334.21386422  .00000012  00000-0  18873-4 0  9997,2 51987  53.2185   5.8328 0002416  31.8804 328.2334 15.08828701 41672,6917.915,95.438,541.451,538.109,0.0
51987.0,STARLINK-3644,PAYLOAD,2022-11-30 11:29:30,15.08830208,0.0002429,53.2186,4.6433,32.3145,327.7996,2.5814e-05,1.22e-06,0.0,0 STARLINK-3644,1 51987U 22025AH  22334.47882475  .00000122  00000-0  25814-4 0  9999,2 51987  53.2186   4.6433 0002429  32.3145 327.7996 15.08830208 40622,6917.91,95.438,541.456,538.095,0.0
51987.0,STARLINK-3644,PAYLOAD,2022-11-30 19:26:25,15.08837382,0.0002506,53.2183,3.1559,30.1641,329.9495,4.3565e-05,4.05e-06,0.0,0 STARLINK-3644,1 51987U 22025AH  22334.81002082  .00000405  00000-0  43565-4 0  9992,2 51987  53.2183   3.1559 0002506  30.1641 329.9495 15.08837382 40678,6917.888000000001,95.438,541.487,538.02,0.0
51987.0,STARLINK-3644,PAYLOAD,2022-12-01 08:09:30,15.08841853,0.0002422,53.2184,0.7768,34.5985,325.5164,-3.7248e-05,-8.81e-06,0.0,0 STARLINK-3644,1 51987U 22025AH  22335.33994143 -.00000881  00000-0 -37248-4 0  9999,2 51987  53.2184   0.7768 0002422  34.5985 325.5164 15.08841853 40752,6917.875,95.437,541.415,538.064,0.0
51987.0,STARLINK-3644,PAYLOAD,2022-12-01 19:17:12,15.08836112,0.0002494,53.2184,358.6953,32.0915,328.0228,5.3799e-05,5.68e-06,0.0,0 STARLINK-3644,1 51987U 22025AH  22335.80362228  .00000568  00000-0  53799-4 0  9993,2 51987  53.2184 358.6953 0002494  32.0915 328.0228 15.08836112 40827,6917.892,95.438,541.4830000000002,538.0319999999998,0.0
51987.0,STARLINK-3644,PAYLOAD,2022-12-02 12:46:27,15.08842499,0.0002536,53.218,355.4245,30.6104,329.5035,0.00010384,1.365e-05,0.0,0 STARLINK-3644,1 51987U 22025AH  22336.53225695  .00001365  00000-0  10384-3 0  9998,2 51987  53.2180 355.4245 0002536  30.6104 329.5035 15.08842499 42024,6917.873000000001,95.437,541.492,537.9830000000002,0.0
51987.0,STARLINK-3644,PAYLOAD,2022-12-03 01:29:32,15.08838233,0.0002625,53.2172,353.0461,30.3928,329.7216,3.1276e-05,2.09e-06,0.0,0 STARLINK-3644,1 51987U 22025AH  22337.06218150  .00000209  00000-0  31276-4 0  9995,2 51987  53.2172 353.0461 0002625  30.3928 329.7216 15.08838233 42102,6917.886,95.438,541.567,537.935,0.0
51987.0,STARLINK-3644,PAYLOAD,2022-12-03 11:01:51,15.08836732,0.0002638,53.2183,351.2629,24.7543,335.3575,4.204e-06,-2.22e-06,0.0,0 STARLINK-3644,1 51987U 22025AH  22337.45962383 -.00000222  00000-0  42040-5 0  9990,2 51987  53.2183 351.2629 0002638  24.7543 335.3575 15.08836732 41072,6917.89,95.438,541.58,537.93,0.0
51987.0,STARLINK-3644,PAYLOAD,2022-12-04 01:20:20,15.08832313,0.0002653,53.2177,348.586,27.2631,332.85,-9.4372e-05,-1.7899999999999998e-05,0.0,0 STARLINK-3644,1 51987U 22025AH  22338.05579194 -.00001790  00000-0 -94372-4 0  9997,2 51987  53.2177 348.5860 0002653  27.2631 332.8500 15.08832313 42256,6917.904,95.438,541.604,537.934,0.0
51987.0,STARLINK-3644,PAYLOAD,2022-12-04 07:41:52,15.08839085,0.0002663,53.2175,347.3964,28.1871,331.9264,-3.4142e-05,-8.32e-06,0.0,0 STARLINK-3644,1 51987U 22025AH  22338.32074637 -.00000832  00000-0 -34142-4 0  9994,2 51987  53.2175 347.3964 0002663  28.1871 331.9264 15.08839085 42297,6917.8830000000025,95.438,541.59,537.906,0.0
51987.0,STARLINK-3644,PAYLOAD,2022-12-04 12:28:01,15.08838903,0.0002676,53.2176,346.5043,29.2345,330.8796,1.4279000000000008e-05,-6.1e-07,0.0,0 STARLINK-3644,1 51987U 22025AH  22338.51946517 -.00000061  00000-0  14279-4 0  9992,2 51987  53.2176 346.5043 0002676  29.2345 330.8796 15.08838903 41238,6917.884,95.438,541.6,537.898,0.0
51987.0,STARLINK-3644,PAYLOAD,2022-12-04 17:14:10,15.08841876,0.0002686,53.2177,345.6123,28.9148,331.1993,6.8157e-05,7.96e-06,0.0,0 STARLINK-3644,1 51987U 22025AH  22338.71818146  .00000796  00000-0  68157-4 0  9998,2 51987  53.2177 345.6123 0002686  28.9148 331.1993 15.08841876 41265,6917.875,95.437,541.5980000000002,537.882,0.0
51987.0,STARLINK-3644,PAYLOAD,2022-12-05 07:32:39,15.08837691,0.0002683,53.2175,342.9365,29.9869,330.1277,5.5693e-05,5.98e-06,0.0,0 STARLINK-3644,1 51987U 22025AH  22339.31434532  .00000598  00000-0  55693-4 0  9999,2 51987  53.2175 342.9365 0002683  29.9869 330.1277 15.08837691 41353,6917.887,95.438,541.609,537.896,0.0
51987.0,STARLINK-3644,PAYLOAD,2022-12-05 17:04:57,15.08852522,0.0002643,53.2179,341.152,29.9763,330.1380000000001,-7.2016e-06,-4.03e-06,0.0,0 STARLINK-3644,1 51987U 22025AH  22339.71177741 -.00000403  00000-0 -72016-5 0  9995,2 51987  53.2179 341.1520 0002643  29.9763 330.1380 15.08852522 42503,6917.842,95.437,541.536,537.879,0.0
